IRIDIUM 116             
1 43072U 17083C   25360.81698198  .00000016  00000+0 -12536-5 0  9990
2 43072  86.3952  34.0455 0002467  89.8012 270.3467 14.34217657419462
IRIDIUM 130             
1 43073U 17083D   25360.57596273  .00000030  00000+0  35862-5 0  9997
2 43073  86.3962  34.4048 0002566  94.9000 265.2489 14.34217510419375
IRIDIUM 151             
1 43074U 17083E   25360.62036115  .00000000  00000+0 -71282-5 0  9992
2 43074  86.3952  34.1815 0002116  92.0157 268.1281 14.34217419419401
IRIDIUM 134             
1 43075U 17083F   25360.79795733  .00000279  00000+0  92548-4 0  9993
2 43075  86.3958  34.1131 0002381  96.3132 263.8335 14.34219979419396
IRIDIUM 137             
1 43076U 17083G   25360.60133208  .00000250  00000+0  82186-4 0  9993
2 43076  86.3960  34.2847 0002439  81.4254 278.7218 14.34217365419436
IRIDIUM 141             
1 43077U 17083H   25360.59499058 -.00000021  00000+0 -14474-4 0  9993
2 43077  86.3950  34.1275 0002003  96.6865 263.4559 14.34217285419433
IRIDIUM 153             
1 43078U 17083J   25360.96577273  .00000367  00000+0  12392-3 0  9998
2 43078  86.3966   2.4633 0002002  98.9517 261.1905 14.34221499420596
IRIDIUM 131             
1 43079U 17083K   25360.86137894  .00000018  00000+0 -73908-6 0  9996
2 43079  86.3959  34.1907 0002117  93.2018 266.9420 14.34217714419404
